{
    "links": {
        "self": "http://www.neowsapp.com/rest/v1/neo/3698476?api_key=iIulBulltgU6a56xZRHN4H3l9WmuAYTsLGpBGhQ2"
    },
    "id": "3698476",
    "neo_reference_id": "3698476",
    "name": "(2014 WJ201)",
    "designation": "2014 WJ201",
    "nasa_jpl_url": "http://ssd.jpl.nasa.gov/sbdb.cgi?sstr=3698476",
    "absolute_magnitude_h": 24.8,
    "estimated_diameter": {
        "kilometers": {
            "estimated_diameter_min": 0.0291443905,
            "estimated_diameter_max": 0.0651688382
        },
        "meters": {
            "estimated_diameter_min": 29.1443904535,
            "estimated_diameter_max": 65.1688382168
        },
        "miles": {
            "estimated_diameter_min": 0.018109479,
            "estimated_diameter_max": 0.0404940262
        },
        "feet": {
            "estimated_diameter_min": 95.6180819754,
            "estimated_diameter_max": 213.8085311752
        }
    },
    "is_potentially_hazardous_asteroid": false,
    "close_approach_data": [
        {
            "close_approach_date": "2014-12-08",
            "close_approach_date_full": "2014-Dec-08 17:17",
            "epoch_date_close_approach": 1418059020000,
            "relative_velocity": {
                "kilometers_per_second": "7.5694464381",
                "kilometers_per_hour": "27250.0071771312",
                "miles_per_hour": "16932.094737368"
            },
            "miss_distance": {
                "astronomical": "0.0527066379",
                "lunar": "20.5028821431",
                "kilometers": "7884800.764701273",
                "miles": "4899388.0075446474"
            },
            "orbiting_body": "Earth"
        }
    ],
    "orbital_data": {
        "orbit_id": "5",
        "orbit_determination_date": "2017-04-06 08:37:17",
        "first_observation_date": "2014-11-23",
        "last_observation_date": "2014-12-20",
        "data_arc_in_days": 27,
        "observations_used": 26,
        "orbit_uncertainty": "8",
        "minimum_orbit_intersection": ".0400544",
        "jupiter_tisserand_invariant": "3.217",
        "epoch_osculation": "2456986.5",
        "eccentricity": ".5889386444977948",
        "semi_major_axis": "2.474753930547253",
        "inclination": "1.249282452545149",
        "ascending_node_longitude": "1.182943120820345",
        "orbital_period": "1421.9897336133",
        "perihelion_distance": "1.017275705225164",
        "perihelion_argument": "89.629372759796",
        "aphelion_distance": "3.932232155869342",
        "perihelion_time": "2457011.161370309808",
        "mean_anomaly": "353.756570035867",
        "mean_motion": ".2531663847426198",
        "equinox": "J2000",
        "orbit_class": {
            "orbit_class_type": "AMO",
            "orbit_class_description": "Near-Earth asteroid orbits similar to that of 1221 Amor",
            "orbit_class_range": "1.017 AU < q (perihelion) < 1.3 AU"
        }
    },
    "is_sentry_object": false
}